start=new Date('2022-12-15T00:00:00.000Z').valueOf();
sats=[{"EPHEMERIS_TYPE":"0","EPOCH":"2022-12-14T14:54:36.585792","MEAN_MOTION_DOT":"0.00000979","RCS_SIZE":"LARGE","ECCENTRICITY":"0.00016980","TIME_SYSTEM":"UTC","REF_FRAME":"TEME","CLASSIFICATION_TYPE":"U","ELEMENT_SET_NO":"999","MEAN_ELEMENT_THEORY":"SGP4","APOAPSIS":"548.392","TLE_LINE1":"1 45376U 20019S   22348.62125678  .00000979  00000-0  84638-4 0  9991","TLE_LINE2":"2 45376  53.0563  68.6335 0001698  48.8344 311.2791 15.06399100151718","FILE":"3699647","SEMIMAJOR_AXIS":"6925.351","DECAY_DATE":null,"COUNTRY_CODE":"US","GP_ID":"220405711","PERIAPSIS":"546.040","INCLINATION":"53.0563","BSTAR":"0.00008463800000","MEAN_MOTION":"15.06399100","ARG_OF_PERICENTER":"48.8344","REV_AT_EPOCH":"15171","OBJECT_ID":"2020-019S","LAUNCH_DATE":"2020-03-18","MEAN_ANOMALY":"311.2791","OBJECT_NAME":"STARLINK-1304","OBJECT_TYPE":"PAYLOAD","SITE":"AFETR","RA_OF_ASC_NODE":"68.6335","CENTER_NAME":"EARTH","NORAD_CAT_ID":"45376","PERIOD":"95.592","MEAN_MOTION_DDOT":"0.0000000000000"},{"RA_OF_ASC_NODE":"69.1121","CENTER_NAME":"EARTH","SITE":"AFETR","OBJECT_TYPE":"PAYLOAD","MEAN_MOTION_DDOT":"0.0000000000000","PERIOD":"95.592","NORAD_CAT_ID":"45377","GP_ID":"220361895","COUNTRY_CODE":"US","DECAY_DATE":null,"SEMIMAJOR_AXIS":"6925.350","INCLINATION":"53.0559","PERIAPSIS":"546.129","REV_AT_EPOCH":"15170","ARG_OF_PERICENTER":"55.3554","MEAN_MOTION":"15.06399616","BSTAR":"0.00008049300000","OBJECT_NAME":"STARLINK-1305","MEAN_ANOMALY":"304.7582","OBJECT_ID":"2020-019T","LAUNCH_DATE":"2020-03-18","ELEMENT_SET_NO":"999","TLE_LINE1":"1 45377U 20019T   22348.51435678  .00000918  00000-0  80493-4 0  9992","MEAN_ELEMENT_THEORY":"SGP4","APOAPSIS":"548.301","TLE_LINE2":"2 45377  53.0559  69.1121 0001568  55.3554 304.7582 15.06399616151701","FILE":"3698874","EPOCH":"2022-12-14T12:20:40.425792","EPHEMERIS_TYPE":"0","ECCENTRICITY":"0.00015680","RCS_SIZE":"LARGE","MEAN_MOTION_DOT":"0.00000918","CLASSIFICATION_TYPE":"U","REF_FRAME":"TEME","TIME_SYSTEM":"UTC"},{"EPHEMERIS_TYPE":"0","EPOCH":"2022-12-14T15:15:50.459616","REF_FRAME":"TEME","CLASSIFICATION_TYPE":"U","TIME_SYSTEM":"UTC","ECCENTRICITY":"0.00019370","MEAN_MOTION_DOT":"0.00000801","RCS_SIZE":"LARGE","ELEMENT_SET_NO":"999","TLE_LINE2":"2 45378  53.0570  68.5763 0001937  39.9124 320.2007 15.06401302151724","FILE":"3699647","TLE_LINE1":"1 45378U 20019U   22348.63600069  .00000801  00000-0  72703-4 0  9990","APOAPSIS":"548.551","MEAN_ELEMENT_THEORY":"SGP4","INCLINATION":"53.0570","PERIAPSIS":"545.868","GP_ID":"220406708","SEMIMAJOR_AXIS":"6925.345","DECAY_DATE":null,"COUNTRY_CODE":"US","OBJECT_NAME":"STARLINK-1310","MEAN_ANOMALY":"320.2007","LAUNCH_DATE":"2020-03-18","OBJECT_ID":"2020-019U","REV_AT_EPOCH":"15172","BSTAR":"0.00007270300000","MEAN_MOTION":"15.06401302","ARG_OF_PERICENTER":"39.9124","SITE":"AFETR","RA_OF_ASC_NODE":"68.5763","CENTER_NAME":"EARTH","OBJECT_TYPE":"PAYLOAD","NORAD_CAT_ID":"45378","MEAN_MOTION_DDOT":"0.0000000000000","PERIOD":"95.592"},{"ELEMENT_SET_NO":"999","MEAN_ELEMENT_THEORY":"SGP4","APOAPSIS":"548.369","TLE_LINE1":"1 45379U 20019V   22348.70603394 -.00000763  00000-0 -32329-4 0  9992","FILE":"3699647","TLE_LINE2":"2 45379  53.0555  68.2583 0001663  57.1716 302.9433 15.06398723151733","EPHEMERIS_TYPE":"0","EPOCH":"2022-12-14T16:56:41.332416","MEAN_MOTION_DOT":"-0.00000763","RCS_SIZE":"LARGE","ECCENTRICITY":"0.00016630","TIME_SYSTEM":"UTC","REF_FRAME":"TEME","CLASSIFICATION_TYPE":"U","OBJECT_TYPE":"PAYLOAD","SITE":"AFETR","RA_OF_ASC_NODE":"68.2583","CENTER_NAME":"EARTH","NORAD_CAT_ID":"45379","PERIOD":"95.592","MEAN_MOTION_DDOT":"0.0000000000000","SEMIMAJOR_AXIS":"6925.352","COUNTRY_CODE":"US","DECAY_DATE":null,"GP_ID":"220406453","INCLINATION":"53.0555","PERIAPSIS":"546.066","BSTAR":"-0.00003232900000","MEAN_MOTION":"15.06398723","ARG_OF_PERICENTER":"57.1716","REV_AT_EPOCH":"15173","LAUNCH_DATE":"2020-03-18","OBJECT_ID":"2020-019V","MEAN_ANOMALY":"302.9433","OBJECT_NAME":"STARLINK-1319"},{"REV_AT_EPOCH":"15204","BSTAR":"-0.00001766000000","MEAN_MOTION":"15.06389831","ARG_OF_PERICENTER":"43.0871","OBJECT_NAME":"STARLINK-1207","MEAN_ANOMALY":"317.0278","OBJECT_ID":"2020-019W","LAUNCH_DATE":"2020-03-18","GP_ID":"220414819","SEMIMAJOR_AXIS":"6925.380","DECAY_DATE":null,"COUNTRY_CODE":"US","PERIAPSIS":"545.831","INCLINATION":"53.0543","NORAD_CAT_ID":"45380","MEAN_MOTION_DDOT":"0.0000000000000","PERIOD":"95.593","SITE":"AFETR","CENTER_NAME":"EARTH","RA_OF_ASC_NODE":"47.3818","OBJECT_TYPE":"PAYLOAD","ECCENTRICITY":"0.00020410","MEAN_MOTION_DOT":"-0.00000545","RCS_SIZE":"LARGE","REF_FRAME":"TEME","CLASSIFICATION_TYPE":"U","TIME_SYSTEM":"UTC","EPHEMERIS_TYPE":"0","EPOCH":"2022-12-14T21:40:40.009440","TLE_LINE1":"1 45380U 20019W   22348.90324085 -.00000545  00000-0 -17660-4 0  9992","APOAPSIS":"548.658","MEAN_ELEMENT_THEORY":"SGP4","FILE":"3699720","TLE_LINE2":"2 45380  53.0543  47.3818 0002041  43.0871 317.0278 15.06389831152047","ELEMENT_SET_NO":"999"},{"ELEMENT_SET_NO":"999","FILE":"3699647","TLE_LINE2":"2 45381  53.0548  47.6344 0002009  56.0502 304.0678 15.06398411152021","MEAN_ELEMENT_THEORY":"SGP4","APOAPSIS":"548.610","TLE_LINE1":"1 45381U 20019X   22348.84794637  .00001754  00000-0  13662-3 0  9998","EPHEMERIS_TYPE":"0","EPOCH":"2022-12-14T20:21:02.566368","TIME_SYSTEM":"UTC","REF_FRAME":"TEME","CLASSIFICATION_TYPE":"U","MEAN_MOTION_DOT":"0.00001754","RCS_SIZE":"LARGE","ECCENTRICITY":"0.00020090","OBJECT_TYPE":"PAYLOAD","SITE":"AFETR","CENTER_NAME":"EARTH","RA_OF_ASC_NODE":"47.6344","NORAD_CAT_ID":"45381","MEAN_MOTION_DDOT":"0.0000000000000","PERIOD":"95.592","PERIAPSIS":"545.827","INCLINATION":"53.0548","SEMIMAJOR_AXIS":"6925.353","DECAY_DATE":null,"COUNTRY_CODE":"US","GP_ID":"220405458","LAUNCH_DATE":"2020-03-18","OBJECT_ID":"2020-019X","OBJECT_NAME":"STARLINK-1258","MEAN_ANOMALY":"304.0678","BSTAR":"0.00013662000000","ARG_OF_PERICENTER":"56.0502","MEAN_MOTION":"15.06398411","REV_AT_EPOCH":"15202"},{"EPOCH":"2022-12-14T10:53:25.438560","EPHEMERIS_TYPE":"0","TIME_SYSTEM":"UTC","CLASSIFICATION_TYPE":"U","REF_FRAME":"TEME","RCS_SIZE":"LARGE","MEAN_MOTION_DOT":"0.00022704","ECCENTRICITY":"0.00007030","ELEMENT_SET_NO":"999","FILE":"3698874","TLE_LINE2":"2 45382  53.0526  48.2503 0000703 312.8013  47.2919 15.09949008151807","APOAPSIS":"536.844","MEAN_ELEMENT_THEORY":"SGP4","TLE_LINE1":"1 45382U 20019Y   22348.45376665  .00022704  00000-0  13969-2 0  9990","PERIAPSIS":"535.872","INCLINATION":"53.0526","DECAY_DATE":null,"COUNTRY_CODE":"US","SEMIMAJOR_AXIS":"6914.493","GP_ID":"220360661","LAUNCH_DATE":"2020-03-18","OBJECT_ID":"2020-019Y","OBJECT_NAME":"STARLINK-1264","MEAN_ANOMALY":"47.2919","ARG_OF_PERICENTER":"312.8013","MEAN_MOTION":"15.09949008","BSTAR":"0.00139690000000","REV_AT_EPOCH":"15180","OBJECT_TYPE":"PAYLOAD","RA_OF_ASC_NODE":"48.2503","CENTER_NAME":"EARTH","SITE":"AFETR","PERIOD":"95.367","MEAN_MOTION_DDOT":"0.0000000000000","NORAD_CAT_ID":"45382"},{"NORAD_CAT_ID":"45383","MEAN_MOTION_DDOT":"0.0000000000000","PERIOD":"95.592","OBJECT_TYPE":"PAYLOAD","SITE":"AFETR","RA_OF_ASC_NODE":"47.3700","CENTER_NAME":"EARTH","BSTAR":"0.00009555800000","MEAN_MOTION":"15.06403491","ARG_OF_PERICENTER":"48.7460","REV_AT_EPOCH":"15203","LAUNCH_DATE":"2020-03-18","OBJECT_ID":"2020-019Z","MEAN_ANOMALY":"311.3697","OBJECT_NAME":"STARLINK-1266","SEMIMAJOR_AXIS":"6925.338","COUNTRY_CODE":"US","DECAY_DATE":null,"GP_ID":"220413077","PERIAPSIS":"545.852","INCLINATION":"53.0550","APOAPSIS":"548.554","MEAN_ELEMENT_THEORY":"SGP4","TLE_LINE1":"1 45383U 20019Z   22348.90691820  .00001142  00000-0  95558-4 0  9993","TLE_LINE2":"2 45383  53.0550  47.3700 0001951  48.7460 311.3697 15.06403491152033","FILE":"3699666","ELEMENT_SET_NO":"999","MEAN_MOTION_DOT":"0.00001142","RCS_SIZE":"LARGE","ECCENTRICITY":"0.00019510","TIME_SYSTEM":"UTC","REF_FRAME":"TEME","CLASSIFICATION_TYPE":"U","EPHEMERIS_TYPE":"0","EPOCH":"2022-12-14T21:45:57.732480"},{"OBJECT_TYPE":"PAYLOAD","SITE":"AFETR","CENTER_NAME":"EARTH","RA_OF_ASC_NODE":"47.4120","NORAD_CAT_ID":"45384","PERIOD":"95.592","MEAN_MOTION_DDOT":"0.0000000000000","SEMIMAJOR_AXIS":"6925.353","DECAY_DATE":null,"COUNTRY_CODE":"US","GP_ID":"220413094","INCLINATION":"53.0556","PERIAPSIS":"545.991","BSTAR":"0.00010357000000","ARG_OF_PERICENTER":"48.9362","MEAN_MOTION":"15.06398590","REV_AT_EPOCH":"15203","OBJECT_ID":"2020-019AA","LAUNCH_DATE":"2020-03-18","OBJECT_NAME":"STARLINK-1267","MEAN_ANOMALY":"311.1780","ELEMENT_SET_NO":"999","MEAN_ELEMENT_THEORY":"SGP4","APOAPSIS":"548.444","TLE_LINE1":"1 45384U 20019AA  22348.89491541  .00001261  00000-0  10357-3 0  9995","TLE_LINE2":"2 45384  53.0556  47.4120 0001771  48.9362 311.1780 15.06398590152034","FILE":"3699667","EPHEMERIS_TYPE":"0","EPOCH":"2022-12-14T21:28:40.691424","MEAN_MOTION_DOT":"0.00001261","RCS_SIZE":"LARGE","ECCENTRICITY":"0.00017710","TIME_SYSTEM":"UTC","REF_FRAME":"TEME","CLASSIFICATION_TYPE":"U"},{"RA_OF_ASC_NODE":"47.3920","CENTER_NAME":"EARTH","SITE":"AFETR","OBJECT_TYPE":"PAYLOAD","PERIOD":"95.593","MEAN_MOTION_DDOT":"0.0000000000000","NORAD_CAT_ID":"45386","GP_ID":"220413594","DECAY_DATE":null,"COUNTRY_CODE":"US","SEMIMAJOR_AXIS":"6925.369","INCLINATION":"53.0556","PERIAPSIS":"546.191","REV_AT_EPOCH":"15203","MEAN_MOTION":"15.06393342","ARG_OF_PERICENTER":"68.8117","BSTAR":"-0.00000918100000","MEAN_ANOMALY":"291.3032","OBJECT_NAME":"STARLINK-1272","LAUNCH_DATE":"2020-03-18","OBJECT_ID":"2020-019AC","ELEMENT_SET_NO":"999","TLE_LINE1":"1 45386U 20019AC  22348.89955745 -.00000418  00000-0 -91810-5 0  9998","MEAN_ELEMENT_THEORY":"SGP4","APOAPSIS":"548.277","FILE":"3699667","TLE_LINE2":"2 45386  53.0556  47.3920 0001506  68.8117 291.3032 15.06393342152037","EPOCH":"2022-12-14T21:35:21.763680","EPHEMERIS_TYPE":"0","ECCENTRICITY":"0.00015060","RCS_SIZE":"LARGE","MEAN_MOTION_DOT":"-0.00000418","CLASSIFICATION_TYPE":"U","REF_FRAME":"TEME","TIME_SYSTEM":"UTC"}];
